OBJECT_NAME,OBJECT_ID,EPOCH,MEAN_MOTION,ECCENTRICITY,INCLINATION,RA_OF_ASC_NODE,ARG_OF_PERICENTER,MEAN_ANOMALY,EPHEMERIS_TYPE,CLASSIFICATION_TYPE,NORAD_CAT_ID,ELEMENT_SET_NO,REV_AT_EPOCH,BSTAR,MEAN_MOTION_DOT,MEAN_MOTION_DDOT
PAKSAT-1R,2011-042A,2026-07-13T03:22:47.475264,1.00267398,.0003058,0.7539,84.3533,349.3878,305.9817,0,U,37779,999,5473,0,.151E-5,0
SES-2,2011-049A,2026-07-13T02:47:03.547392,1.00270631,.0002676,0.1225,91.3277,21.6033,132.8295,0,U,37809,999,5422,0,-.198E-5,0
ARABSAT-5C,2011-049B,2026-07-13T03:17:32.978400,1.00270555,.0003504,0.0488,15.3143,112.4868,232.5895,0,U,37810,999,5429,0,.121E-5,0
EUTELSAT 7 WEST A,2011-051A,2026-07-13T03:09:41.230080,1.00270595,.0004548,0.0638,342.8241,144.2065,204.0807,0,U,37816,999,5413,0,-.63E-6,0
QUETZSAT 1,2011-054A,2026-07-13T03:37:22.905984,1.00271654,.0002552,0.0102,25.8964,95.3406,147.1495,0,U,37826,999,5013,0,-.244E-5,0
INTELSAT 18 (IS-18),2011-056A,2026-07-13T02:20:30.700320,1.00269916,.0001643,0.0149,317.8546,166.0971,22.1509,0,U,37834,999,5407,0,.51E-6,0
EUTELSAT 16A,2011-057A,2026-07-13T04:07:38.735040,1.00273073,.0005819,0.0387,14.1523,94.5527,260.2508,0,U,37836,999,759,0,.102E-5,0
VIASAT-1,2011-059A,2026-07-12T21:31:10.773408,1.00269379,.0002062,0.0242,39.1729,70.3408,28.9627,0,U,37843,999,4758,0,0,0
ASIASAT 7,2011-069A,2026-07-13T00:16:43.667328,1.00273023,.0001197,0.0155,41.3056,40.8461,318.4294,0,U,37933,999,4511,0,-.335E-5,0
BEIDOU-2 IGSO-5,2011-073A,2026-07-02T17:30:18.330912,1.00270596,.01145273,47.6496,271.3544,222.0502,141.5350,0,U,37948,999,5329,0,-.128E-5,0
LUCH-5A,2011-074B,2026-07-12T21:08:57.903072,1.00272914,.0002562,8.8166,73.4291,60.1843,281.3705,0,U,37951,999,5330,0,-.58E-6,0
NIGCOMSAT 1R,2011-077A,2026-07-13T03:24:02.356416,1.00269648,.0002635,0.0256,120.7287,227.4757,36.3170,0,U,38014,999,5321,0,.143E-5,0
WGS F4 (USA 233),2012-003A,2026-07-13T03:37:08.599008,1.00267803,.0000566,0.0275,50.0008,108.2158,275.5285,0,U,38070,999,4440,0,0,0
SES-4,2012-007A,2026-07-12T21:57:42.497280,1.00272159,.0002457,0.0195,62.5569,53.4072,122.2685,0,U,38087,999,5248,0,-.169E-5,0
BEIDOU-2 G5,2012-008A,2026-07-13T03:28:39.411840,1.00269601,.000733,3.6351,69.5276,269.0592,63.2758,0,U,38091,999,5262,0,.52E-6,0
MUOS-1,2012-009A,2026-07-13T03:26:12.630336,1.00271923,.005703,5.5275,47.1203,3.3781,192.1268,0,U,38093,999,5270,0,-.134E-5,0
INTELSAT 22 (IS-22),2012-011A,2026-07-13T03:32:31.540992,1.00271280,.0001965,0.0433,72.9648,61.2703,282.0176,0,U,38098,999,744,0,0,0
APSTAR-7,2012-013A,2026-07-13T04:34:51.667392,1.00271057,.000294,0.0155,74.5678,49.2545,312.4696,0,U,38107,999,5206,0,-.104E-5,0
YAHSAT 1B,2012-016A,2026-07-13T01:42:49.313376,1.00273295,.00035,0.0884,88.7099,45.3416,230.2049,0,U,38245,999,4586,0,.124E-5,0
AEHF-2 (USA 235),2012-019A,2026-07-13T00:48:38.471040,1.00272403,.0002224,6.7084,57.2934,54.8872,174.4022,0,U,38254,999,724,0,-.142E-5,0
JCSAT-13,2012-023A,2026-07-13T00:21:58.164192,1.00270777,.0002237,0.0126,57.8815,57.9885,304.5310,0,U,38331,999,5179,0,-.358E-5,0
VINASAT-2,2012-023B,2026-07-12T22:41:30.209856,1.00271361,.0002094,0.0138,356.0939,118.8754,288.0835,0,U,38332,999,4691,0,-.33E-5,0
NIMIQ 6,2012-026A,2026-07-13T02:45:56.155392,1.00271341,.0002527,0.0164,16.3550,97.8750,127.1465,0,U,38342,999,5067,0,-.176E-5,0
ZHONGXING-2A,2012-028A,2026-07-13T01:57:17.925408,1.00271383,.0001409,1.5179,83.5519,36.4135,298.5809,0,U,38352,999,5155,0,-.296E-5,0
INTELSAT 19 (IS-19),2012-030A,2026-07-13T02:16:38.571168,1.00271181,.000306,0.0120,58.0489,67.3891,5.6958,0,U,38356,999,5071,0,-.59E-6,0
ECHOSTAR 17,2012-035A,2026-07-13T03:29:57.441408,1.00271389,.0002036,0.0179,27.2748,83.6832,125.4568,0,U,38551,999,5132,0,-.77E-6,0
METEOSAT-10 (MSG-3),2012-035B,2026-07-12T22:03:56.896992,1.00270327,.0001085,4.7302,60.8907,17.4311,183.5237,0,U,38552,999,5111,0,-.12E-6,0
SES-5,2012-036A,2026-07-12T09:10:38.808768,1.00270430,.00018809,0.0464,319.3864,153.8533,319.6709,0,U,38652,999,4471,0,.35E-6,0
INTELSAT 20 (IS-20),2012-043A,2026-07-13T03:31:24.148992,1.00272711,.0001305,0.0122,63.4914,108.1352,240.7506,0,U,38740,999,5100,0,-.27E-6,0
HYLAS 2,2012-043B,2026-07-13T02:51:10.652256,1.00271013,.000236,2.4917,80.7533,56.5106,123.9539,0,U,38741,999,5103,0,-.262E-5,0
INTELSAT 21 (IS-21),2012-045A,2026-07-13T02:55:20.107200,1.00275983,.0001702,0.0180,36.3687,85.8183,154.6640,0,U,38749,999,5078,0,-.287E-5,0
ASTRA 2F,2012-051A,2026-07-13T03:19:55.248960,1.00265129,.0002253,0.0596,238.7575,302.0784,188.3424,0,U,38778,999,4139,0,.147E-5,0
