PAKSAT-1R               
1 37779U 11042A   26194.14082726  .00000151  00000+0  00000+0 0  9998
2 37779   0.7539  84.3533 0003058 349.3878 305.9817  1.00267398 54731
SES-2                   
1 37809U 11049A   26194.11601328 -.00000198  00000+0  00000+0 0  9993
2 37809   0.1225  91.3277 0002676  21.6033 132.8295  1.00270631 54227
ARABSAT-5C              
1 37810U 11049B   26194.13718725  .00000121  00000+0  00000+0 0  9992
2 37810   0.0488  15.3143 0003504 112.4868 232.5895  1.00270555 54299
EUTELSAT 7 WEST A       
1 37816U 11051A   26194.13172720 -.00000063  00000+0  00000+0 0  9996
2 37816   0.0638 342.8241 0004548 144.2065 204.0807  1.00270595 54134
QUETZSAT 1              
1 37826U 11054A   26194.15095956 -.00000244  00000+0  00000+0 0  9998
2 37826   0.0102  25.8964 0002552  95.3406 147.1495  1.00271654 50132
INTELSAT 18 (IS-18)     
1 37834U 11056A   26194.09757755  .00000051  00000+0  00000+0 0  9999
2 37834   0.0149 317.8546 0001643 166.0971  22.1509  1.00269916 54078
EUTELSAT 16A            
1 37836U 11057A   26194.17197610  .00000102  00000+0  00000+0 0  9996
2 37836   0.0387  14.1523 0005819  94.5527 260.2508  1.00273073  7595
VIASAT-1                
1 37843U 11059A   26193.89665247  .00000000  00000+0  00000+0 0  9997
2 37843   0.0242  39.1729 0002062  70.3408  28.9627  1.00269379 47583
ASIASAT 7               
1 37933U 11069A   26194.01161652 -.00000335  00000+0  00000+0 0  9996
2 37933   0.0155  41.3056 0001197  40.8461 318.4294  1.00273023 45118
BEIDOU-2 IGSO-5         
1 37948U 11073A   26183.72937883 -.00000128  00000+0  00000+0 0  9990
2 37948  47.6496 271.3544 0114527 222.0502 141.5350  1.00270596 53296
LUCH-5A                 
1 37951U 11074B   26193.88122573 -.00000058  00000+0  00000+0 0  9997
2 37951   8.8166  73.4291 0002562  60.1843 281.3705  1.00272914 53302
NIGCOMSAT 1R            
1 38014U 11077A   26194.14169394  .00000143  00000+0  00000+0 0  9997
2 38014   0.0256 120.7287 0002635 227.4757  36.3170  1.00269648 53215
WGS F4 (USA 233)        
1 38070U 12003A   26194.15079397  .00000000  00000+0  00000+0 0  9995
2 38070   0.0275  50.0008 0000566 108.2158 275.5285  1.00267803 44402
SES-4                   
1 38087U 12007A   26193.91507520 -.00000169  00000+0  00000+0 0  9991
2 38087   0.0195  62.5569 0002457  53.4072 122.2685  1.00272159 52487
BEIDOU-2 G5             
1 38091U 12008A   26194.14490060  .00000052  00000+0  00000+0 0  9993
2 38091   3.6351  69.5276 0007330 269.0592  63.2758  1.00269601 52623
MUOS-1                  
1 38093U 12009A   26194.14320174 -.00000134  00000+0  00000+0 0  9996
2 38093   5.5275  47.1203 0057030   3.3781 192.1268  1.00271923 52701
INTELSAT 22 (IS-22)     
1 38098U 12011A   26194.14758728  .00000000  00000+0  00000+0 0  9995
2 38098   0.0433  72.9648 0001965  61.2703 282.0176  1.00271280  7448
APSTAR-7                
1 38107U 12013A   26194.19087578 -.00000104  00000+0  00000+0 0  9997
2 38107   0.0155  74.5678 0002940  49.2545 312.4696  1.00271057 52060
YAHSAT 1B               
1 38245U 12016A   26194.07140409  .00000124  00000+0  00000+0 0  9994
2 38245   0.0884  88.7099 0003500  45.3416 230.2049  1.00273295 45868
AEHF-2 (USA 235)        
1 38254U 12019A   26194.03377860 -.00000142  00000+0  00000+0 0  9997
2 38254   6.7084  57.2934 0002224  54.8872 174.4022  1.00272403  7245
JCSAT-13                
1 38331U 12023A   26194.01525653 -.00000358  00000+0  00000+0 0  9990
2 38331   0.0126  57.8815 0002237  57.9885 304.5310  1.00270777 51798
VINASAT-2               
1 38332U 12023B   26193.94548854 -.00000330  00000+0  00000+0 0  9990
2 38332   0.0138 356.0939 0002094 118.8754 288.0835  1.00271361 46912
NIMIQ 6                 
1 38342U 12026A   26194.11523328 -.00000176  00000+0  00000+0 0  9991
2 38342   0.0164  16.3550 0002527  97.8750 127.1465  1.00271341 50678
ZHONGXING-2A            
1 38352U 12028A   26194.08145747 -.00000296  00000+0  00000+0 0  9998
2 38352   1.5179  83.5519 0001409  36.4135 298.5809  1.00271383 51555
INTELSAT 19 (IS-19)     
1 38356U 12030A   26194.09489087 -.00000059  00000+0  00000+0 0  9991
2 38356   0.0120  58.0489 0003060  67.3891   5.6958  1.00271181 50714
ECHOSTAR 17             
1 38551U 12035A   26194.14580372 -.00000077  00000+0  00000+0 0  9998
2 38551   0.0179  27.2748 0002036  83.6832 125.4568  1.00271389 51325
METEOSAT-10 (MSG-3)     
1 38552U 12035B   26193.91940853 -.00000012  00000+0  00000+0 0  9996
2 38552   4.7302  60.8907 0001085  17.4311 183.5237  1.00270327 51111
SES-5                   
1 38652U 12036A   26193.38239362  .00000035  00000+0  00000+0 0  9999
2 38652   0.0464 319.3864 0001880 153.8533 319.6709  1.00270430 44717
INTELSAT 20 (IS-20)     
1 38740U 12043A   26194.14680728 -.00000027  00000+0  00000+0 0  9998
2 38740   0.0122  63.4914 0001305 108.1352 240.7506  1.00272711 51006
HYLAS 2                 
1 38741U 12043B   26194.11887329 -.00000262  00000+0  00000+0 0  9993
2 38741   2.4917  80.7533 0002360  56.5106 123.9539  1.00271013 51034
INTELSAT 21 (IS-21)     
1 38749U 12045A   26194.12176050 -.00000287  00000+0  00000+0 0  9993
2 38749   0.0180  36.3687 0001702  85.8183 154.6640  1.00275983 50789
ASTRA 2F                
1 38778U 12051A   26194.13883390  .00000147  00000+0  00000+0 0  9999
2 38778   0.0596 238.7575 0002253 302.0784 188.3424  1.00265129 41391
